[{"OBJECT_NAME":"STARLINK-35762","OBJECT_ID":"2025-303K","EPOCH":"2026-03-09T23:08:54.457152","MEAN_MOTION":15.27601021,"ECCENTRICITY":6.381e-5,"INCLINATION":42.9981,"RA_OF_ASC_NODE":309.4666,"ARG_OF_PERICENTER":243.7066,"MEAN_ANOMALY":116.372,"EPHEMERIS_TYPE":0,"CLASSIFICATION_TYPE":"U","NORAD_CAT_ID":67172,"ELEMENT_SET_NO":999,"REV_AT_EPOCH":1277,"BSTAR":0.0012773401,"MEAN_MOTION_DOT":0.00035077,"MEAN_MOTION_DDOT":0},{"OBJECT_NAME":"KIRARI (OICETS)","OBJECT_ID":"2005-031A","EPOCH":"2026-03-09T15:02:18.043872","MEAN_MOTION":15.22934858,"ECCENTRICITY":0.0019783,"INCLINATION":98.0768,"RA_OF_ASC_NODE":316.1697,"ARG_OF_PERICENTER":5.9068,"MEAN_ANOMALY":354.2396,"EPHEMERIS_TYPE":0,"CLASSIFICATION_TYPE":"U","NORAD_CAT_ID":28809,"ELEMENT_SET_NO":999,"REV_AT_EPOCH":12344,"BSTAR":0.00027776,"MEAN_MOTION_DOT":6.472e-5,"MEAN_MOTION_DDOT":0}]
